FENGYUN 1C DEB          
1 29854U 99025EY  17345.69381758  .00000096  00000-0  12041-3 0  9996
2 29854  99.1267 242.4771 0150274 334.4323  77.1249 13.81365742549820
